{"type":"FeatureCollection","features":[{"type":"Feature","properties":{"id":"us-ca-san-francisco","region_id":"US-CA-SF","level":"city","parent_id":"US-CA","countryCode":"us","countryName":"美国","adminArea":"CA","cityName":"旧金山","nameZh":"旧金山","nameEn":"San Francisco","aliases":["us|ca|san francisco","us|california|san francisco"]},"geometry":{"type":"Polygon","coordinates":[[[-122.6162066,37.8153638],[-122.6139438,37.8138868],[-122.600236,37.802483],[-122.588174,37.789362],[-122.584728,37.779156],[-122.581281,37.760203],[-122.5754041,37.7082697],[-122.2814578,37.7082002],[-122.3466351,37.8108018],[-122.37382,37.8835693],[-122.4321472,37.9296678],[-122.418742,37.8525993],[-122.4722505,37.8321604],[-122.4729984,37.8319829],[-122.4736616,37.8321749],[-122.4740632,37.8336006],[-122.4743512,37.8337841],[-122.476721,37.8337376],[-122.4779586,37.8332979],[-122.478174,37.8328314],[-122.4777384,37.8321438],[-122.4777932,37.8315238],[-122.4785473,37.8309062],[-122.4789711,37.8297002],[-122.4786368,37.8290906],[-122.478739,37.8268365],[-122.4784126,37.8264739],[-122.4782135,37.8252777],[-122.4816996,37.8260361],[-122.4831138,37.8257146],[-122.4834378,37.8266089],[-122.4843019,37.826891],[-122.4861598,37.8262303],[-122.4896063,37.8267922],[-122.491219,37.8264768],[-122.4915295,37.8262776],[-122.4920705,37.825005],[-122.4932333,37.8246035],[-122.4934857,37.8239309],[-122.4959537,37.8220476],[-122.4963206,37.822439],[-122.4984712,37.8223775],[-122.499809,37.821891],[-122.49996,37.8210244],[-122.499185,37.8202844],[-122.4993053,37.8199182],[-122.5006974,37.8200216],[-122.5018063,37.8209806],[-122.501548,37.8213505],[-122.5017863,37.8215807],[-122.502999,37.8209004],[-122.5034745,37.8209424],[-122.5034591,37.8211558],[-122.5046389,37.8209293],[-122.5048654,37.8213664],[-122.5045575,37.8217475],[-122.5053078,37.8219395],[-122.5057561,37.8224138],[-122.5053927,37.8226561],[-122.5055154,37.8229143],[-122.5073948,37.823739],[-122.5114083,37.824659],[-122.5122936,37.8243085],[-122.5148821,37.8252927],[-122.51621,37.8253308],[-122.5170381,37.8246275],[-122.5172452,37.8251267],[-122.5181854,37.8253886],[-122.5190198,37.8253111],[-122.5193295,37.8249865],[-122.5206451,37.8252531],[-122.5235603,37.8249148],[-122.5235027,37.8247132],[-122.523909,37.8246701],[-122.5238358,37.8239361],[-122.5244492,37.8236557],[-122.5247543,37.8230864],[-122.5244149,37.8226056],[-122.525503,37.822431],[-122.5253676,37.8222269],[-122.5258984,37.8218113],[-122.525626,37.8214424],[-122.5259124,37.8212592],[-122.5258112,37.8210526],[-122.5266005,37.8211891],[-122.5265242,37.8208288],[-122.5272496,37.8210833],[-122.5289246,37.8202939],[-122.5292842,37.8195118],[-122.5287643,37.8190333],[-122.5293205,37.8193729],[-122.529637,37.8186398],[-122.5287196,37.8173643],[-122.5291613,37.8169574],[-122.5280971,37.8158321],[-122.5280478,37.8152301],[-122.5290625,37.8156131],[-122.529385,37.8151766],[-122.5301101,37.8153729],[-122.6162066,37.8153638]]]}},{"type":"Feature","properties":{"id":"jp-13-tokyo","region_id":"JP-13","level":"admin1","parent_id":"JP","countryCode":"jp","countryName":"日本","adminArea":"東京都","cityName":"東京都","nameZh":"東京都","nameEn":"Tokyo","cityKey":"jp|東京都|東京都","aliases":["jp|tokyo|tokyo","jp|tokyo|東京都","jp|东京|東京都","jp|東京都|東京都"],"source":"MLIT KSJ N03-2024","sourceYear":2024,"license":"CC-BY-4.0","mapCluster":"tokyo-admin1"},"geometry":{"type":"MultiPolygon","coordinates":[[[[139.789592,35.656259],[139.792419,35.652934],[139.786603,35.649498],[139.776129,35.642411],[139.778797,35.639369],[139.780161,35.639354],[139.794698,35.647217],[139.794831,35.650429],[139.797666,35.647744],[139.798094,35.644742],[139.795884,35.64312],[139.794438,35.644898],[139.78437,35.639441],[139.782635,35.637688],[139.781082,35.638733],[139.77872,35.637117],[139.78493,35.629612],[139.787331,35.62733],[139.792021,35.62987],[139.79857,35.621815],[139.802193,35.626224],[139.800334,35.631065],[139.801486,35.632811],[139.801369,35.636359],[139.80699,35.636901],[139.806037,35.644885],[139.808606,35.644876],[139.807716,35.643345],[139.808124,35.640462],[139.820415,35.641631],[139.821673,35.642941],[139.83448,35.644068],[139.833675,35.634625],[139.821247,35.63344],[139.821666,35.631977],[139.836568,35.633358],[139.840254,35.633892],[139.840978,35.64298],[139.841729,35.650749],[139.842547,35.653404],[139.842958,35.656821],[139.845543,35.656717],[139.850381,35.656526],[139.849441,35.642762],[139.851985,35.642119],[139.856558,35.639747],[139.862423,35.638562],[139.866445,35.638705],[139.869044,35.639202],[139.871461,35.638642],[139.879604,35.64275],[139.883494,35.645119],[139.886904,35.653734],[139.887389,35.656166],[139.88711,35.664513],[139.887233,35.668791],[139.88565,35.672074],[139.885623,35.674862],[139.886432,35.678566],[139.887945,35.679993],[139.890868,35.681309],[139.893558,35.682003],[139.903789,35.683116],[139.905937,35.683672],[139.908646,35.685506],[139.913853,35.69093],[139.918735,35.697709],[139.918649,35.699839],[139.916986,35.703523],[139.916211,35.708001],[139.913437,35.710508],[139.908123,35.713862],[139.905698,35.717839],[139.903982,35.71959],[139.898654,35.723451],[139.897208,35.72675],[139.897263,35.729278],[139.897939,35.731872],[139.900886,35.737458],[139.900967,35.740063],[139.899451,35.744386],[139.896661,35.746705],[139.892878,35.748082],[139.889982,35.750765],[139.884045,35.757405],[139.883208,35.758623],[139.882666,35.762006],[139.88079,35.764767],[139.879462,35.767524],[139.880759,35.771666],[139.882847,35.773535],[139.888484,35.775786],[139.893417,35.778316],[139.894464,35.779918],[139.893778,35.782746],[139.88724,35.784019],[139.883117,35.782569],[139.877249,35.781166],[139.874542,35.781776],[139.871341,35.785577],[139.871555,35.787979],[139.873258,35.790395],[139.875959,35.792187],[139.876605,35.793828],[139.874748,35.79654],[139.873391,35.79717],[139.870771,35.797317],[139.867716,35.796683],[139.863849,35.794828],[139.859895,35.795333],[139.858991,35.79485],[139.858052,35.792692],[139.856485,35.790959],[139.854572,35.791054],[139.852648,35.792157],[139.846748,35.796506],[139.843387,35.799798],[139.838008,35.800806],[139.83661,35.800155],[139.832765,35.79568],[139.830852,35.794629],[139.82605,35.79336],[139.824442,35.794946],[139.822476,35.79565],[139.820486,35.797539],[139.819645,35.799587],[139.820752,35.805535],[139.822921,35.809407],[139.824645,35.810646],[139.824927,35.811905],[139.823392,35.814152],[139.821056,35.815077],[139.819654,35.81178],[139.81793,35.810425],[139.813298,35.808321],[139.809608,35.80831],[139.804711,35.808795],[139.802304,35.808553],[139.798841,35.806194],[139.795353,35.805343],[139.792431,35.805291],[139.787924,35.806689],[139.781495,35.807146],[139.779234,35.808249],[139.77715,35.811018],[139.771755,35.816875],[139.770298,35.817486],[139.766219,35.817475],[139.765784,35.815745],[139.761274,35.812888],[139.757146,35.812056],[139.755611,35.81271],[139.755201,35.810732],[139.751908,35.810938],[139.750773,35.810171],[139.750656,35.806669],[139.755299,35.803184],[139.756276,35.801745],[139.759813,35.798933],[139.760769,35.79741],[139.75997,35.794338],[139.755596,35.790029],[139.756262,35.788639],[139.755001,35.786896],[139.752283,35.78623],[139.748856,35.786],[139.746703,35.786816],[139.746294,35.783888],[139.742618,35.781696],[139.738049,35.780221],[139.737833,35.780528],[139.738537,35.787404],[139.73638,35.789007],[139.733872,35.790047],[139.726589,35.787491],[139.724462,35.787274],[139.723145,35.788389],[139.722241,35.790727],[139.720736,35.791428],[139.717426,35.791917],[139.709196,35.792017],[139.705258,35.793408],[139.699678,35.797233],[139.69686,35.798904],[139.693157,35.800402],[139.687832,35.800841],[139.681893,35.799299],[139.678382,35.798823],[139.673835,35.79917],[139.669766,35.800241],[139.666004,35.800505],[139.657777,35.800502],[139.653362,35.800226],[139.648238,35.79763],[139.643691,35.798218],[139.640568,35.797692],[139.63941,35.792849],[139.637541,35.790849],[139.634231,35.790335],[139.631567,35.788203],[139.631692,35.786336],[139.630346,35.785362],[139.629066,35.785738],[139.627875,35.784658],[139.627737,35.783129],[139.624527,35.780811],[139.624714,35.779826],[139.624285,35.77413],[139.625602,35.773015],[139.624083,35.771253],[139.622992,35.766872],[139.617729,35.766648],[139.616818,35.768437],[139.617233,35.770348],[139.614855,35.770874],[139.612483,35.770425],[139.610207,35.770571],[139.608749,35.768837],[139.607145,35.769376],[139.606357,35.77095],[139.603837,35.770117],[139.603167,35.77086],[139.598644,35.769096],[139.59739,35.770976],[139.59844,35.772142],[139.604384,35.775017],[139.596938,35.776412],[139.597201,35.778366],[139.594144,35.778704],[139.593414,35.777188],[139.588761,35.778529],[139.586538,35.775182],[139.583985,35.774832],[139.583687,35.772781],[139.582009,35.772562],[139.582243,35.771207],[139.578165,35.770851],[139.578071,35.769473],[139.576889,35.768074],[139.574337,35.768191],[139.574591,35.766228],[139.569996,35.765368],[139.571076,35.763343],[139.568238,35.763508],[139.56516,35.761861],[139.563585,35.762838],[139.562786,35.761595],[139.561834,35.759603],[139.55987,35.759204],[139.557784,35.759583],[139.555392,35.757747],[139.555246,35.755736],[139.552045,35.755964],[139.550061,35.754375],[139.547158,35.753384],[139.546779,35.755089],[139.544584,35.754761],[139.545124,35.757582],[139.54698,35.760303],[139.546688,35.762692],[139.547636,35.766172],[139.547023,35.768008],[139.547838,35.77398],[139.546569,35.774141],[139.541667,35.771999],[139.536608,35.77026],[139.532786,35.769444],[139.530302,35.768349],[139.527049,35.768262],[139.521378,35.76757],[139.516375,35.765573],[139.520554,35.770028],[139.523049,35.771936],[139.525952,35.77214],[139.528446,35.773044],[139.532234,35.773415],[139.535954,35.775178],[139.537494,35.776879],[139.542979,35.779807],[139.543797,35.782836],[139.543793,35.788194],[139.540773,35.789855],[139.537579,35.790759],[139.539827,35.793742],[139.544087,35.796496],[139.546222,35.799234],[139.547199,35.802658],[139.545259,35.804576],[139.544292,35.806636],[139.541695,35.807307],[139.53686,35.803943],[139.532496,35.798307],[139.531767,35.796835],[139.529264,35.794129],[139.525515,35.791885],[139.5234,35.791841],[139.523721,35.79053],[139.522558,35.78923],[139.520283,35.78837],[139.51684,35.788953],[139.51404,35.788501],[139.513145,35.786014],[139.511905,35.785081],[139.508463,35.784659],[139.506703,35.78277],[139.503742,35.782857],[139.499381,35.782173],[139.498031,35.781208],[139.496779,35.7787],[139.495985,35.781602],[139.493494,35.7817],[139.493751,35.779581],[139.490895,35.780489],[139.489579,35.779147],[139.484985,35.780802],[139.48146,35.780556],[139.479499,35.779937],[139.478555,35.778496],[139.475466,35.776906],[139.474511,35.775342],[139.471155,35.773404],[139.469846,35.774207],[139.464932,35.773756],[139.463195,35.772874],[139.461253,35.773382],[139.458918,35.771665],[139.458561,35.769677],[139.451349,35.769327],[139.446208,35.767945],[139.444968,35.76666],[139.440772,35.767002],[139.43963,35.769161],[139.43827,35.767956],[139.435457,35.767121],[139.43322,35.767346],[139.431554,35.766344],[139.428822,35.766959],[139.427623,35.766446],[139.422212,35.767803],[139.419561,35.765905],[139.415903,35.766275],[139.409509,35.768689],[139.407776,35.768444],[139.404885,35.76916],[139.400282,35.767751],[139.39845,35.764405],[139.395911,35.764244],[139.391685,35.763354],[139.390458,35.764076],[139.391817,35.766831],[139.389602,35.767136],[139.384844,35.765218],[139.380223,35.766375],[139.379693,35.767209],[139.379026,35.771197],[139.381541,35.774496],[139.381336,35.777295],[139.380137,35.778747],[139.375521,35.780459],[139.373608,35.779689],[139.369911,35.781542],[139.369421,35.783255],[139.367495,35.784378],[139.367827,35.787041],[139.369869,35.787607],[139.368714,35.790289],[139.369921,35.791727],[139.359842,35.791622],[139.358575,35.792976],[139.356655,35.793477],[139.353058,35.792997],[139.350265,35.793406],[139.349709,35.794907],[139.347657,35.795382],[139.346708,35.796405],[139.342681,35.794032],[139.338499,35.794594],[139.334879,35.793699],[139.332783,35.79189],[139.330366,35.793617],[139.33036,35.794339],[139.325729,35.795212],[139.323969,35.796867],[139.322246,35.799608],[139.321472,35.802059],[139.318804,35.807732],[139.318339,35.809829],[139.316789,35.81147],[139.316752,35.812689],[139.315025,35.814269],[139.315029,35.816809],[139.316497,35.819359],[139.316159,35.823668],[139.314922,35.825245],[139.311472,35.825279],[139.306777,35.823029],[139.304865,35.823868],[139.302592,35.82405],[139.302691,35.826014],[139.302053,35.828555],[139.301185,35.829771],[139.301741,35.831483],[139.301169,35.83496],[139.297924,35.835404],[139.296314,35.83514],[139.295604,35.833845],[139.292403,35.837002],[139.290911,35.837957],[139.286156,35.836906],[139.285162,35.836016],[139.282884,35.837169],[139.281846,35.83952],[139.279997,35.83931],[139.271892,35.839688],[139.26824,35.838242],[139.263663,35.837419],[139.260504,35.836001],[139.258805,35.837272],[139.252255,35.838249],[139.251134,35.837556],[139.248843,35.837617],[139.24681,35.836893],[139.242528,35.836787],[139.240961,35.840155],[139.237214,35.840211],[139.235675,35.838335],[139.232535,35.836636],[139.230663,35.836742],[139.227744,35.839046],[139.224547,35.840499],[139.220093,35.841361],[139.219333,35.842521],[139.213943,35.845439],[139.212649,35.846611],[139.20968,35.846182],[139.207468,35.84642],[139.204901,35.844567],[139.204802,35.843028],[139.203138,35.841199],[139.199311,35.841243],[139.19581,35.840046],[139.192442,35.840272],[139.186886,35.842865],[139.184158,35.842792],[139.183628,35.843575],[139.177298,35.846594],[139.174358,35.848312],[139.170995,35.84865],[139.169093,35.849985],[139.166167,35.849968],[139.163531,35.850868],[139.162154,35.852108],[139.159401,35.857065],[139.155119,35.85857],[139.150276,35.860936],[139.147543,35.862711],[139.144361,35.862857],[139.138912,35.864011],[139.135361,35.865387],[139.131238,35.864468],[139.129197,35.865561],[139.126084,35.865037],[139.121823,35.864929],[139.11927,35.864291],[139.116013,35.864455],[139.114446,35.865369],[139.111734,35.86468],[139.109669,35.865707],[139.10819,35.865656],[139.102677,35.866579],[139.101439,35.865716],[139.099091,35.868674],[139.094496,35.869506],[139.091657,35.869034],[139.089228,35.871034],[139.083993,35.87343],[139.082539,35.874873],[139.077762,35.87534],[139.074895,35.874089],[139.072553,35.871724],[139.070452,35.871547],[139.061447,35.873707],[139.059187,35.875047],[139.05782,35.877497],[139.055575,35.877456],[139.049842,35.878833],[139.048327,35.881209],[139.047294,35.881497],[139.045753,35.883433],[139.044535,35.883767],[139.042871,35.885601],[139.040349,35.886307],[139.037611,35.889094],[139.03404,35.89093],[139.02933,35.892908],[139.025446,35.895528],[139.024114,35.897198],[139.020892,35.897158],[139.018399,35.898424],[139.013379,35.898256],[139.010548,35.8971],[139.006805,35.893638],[139.006657,35.889625],[139.004958,35.887381],[139.002894,35.886221],[139.000763,35.884],[138.995881,35.884447],[138.994582,35.883257],[138.988751,35.881147],[138.985259,35.881185],[138.983673,35.882561],[138.978928,35.885011],[138.9759,35.883237],[138.972487,35.88198],[138.968022,35.882214],[138.966696,35.88064],[138.966409,35.878975],[138.965204,35.877786],[138.962075,35.876752],[138.960083,35.876782],[138.954458,35.87491],[138.954395,35.874179],[138.949262,35.869019],[138.946372,35.868678],[138.945144,35.867929],[138.946536,35.864358],[138.942868,35.860162],[138.94302,35.857204],[138.943933,35.854819],[138.945184,35.854452],[138.946804,35.85284],[138.948548,35.849544],[138.947866,35.847756],[138.947976,35.844821],[138.947339,35.843297],[138.949119,35.840471],[138.953262,35.836517],[138.958541,35.832692],[138.959514,35.831214],[138.961388,35.830656],[138.962195,35.829608],[138.964254,35.829382],[138.969297,35.831383],[138.970479,35.827357],[138.969647,35.82273],[138.970074,35.821282],[138.969453,35.818845],[138.96977,35.815853],[138.972059,35.813697],[138.972214,35.811125],[138.971083,35.809982],[138.970322,35.804584],[138.971402,35.803076],[138.971106,35.80142],[138.971796,35.798998],[138.973409,35.797808],[138.974519,35.79515],[138.977105,35.792752],[138.976079,35.791866],[138.976876,35.789029],[138.97952,35.787088],[138.981877,35.787076],[138.985045,35.785268],[138.984983,35.783454],[138.986425,35.782253],[138.985321,35.774417],[138.983662,35.772017],[138.983773,35.769475],[138.984397,35.767765],[138.986512,35.766463],[138.987341,35.765028],[138.989362,35.76349],[138.991235,35.759143],[138.992752,35.757583],[138.992432,35.755518],[138.995611,35.753768],[138.996532,35.752549],[138.998828,35.751138],[139.001938,35.750146],[139.005155,35.750452],[139.00569,35.748133],[139.010389,35.742292],[139.012291,35.738669],[139.013795,35.734989],[139.01796,35.731109],[139.019168,35.728976],[139.020899,35.727281],[139.021987,35.725039],[139.022528,35.721991],[139.024662,35.719887],[139.028978,35.716768],[139.03235,35.716215],[139.034778,35.714959],[139.037759,35.712573],[139.038715,35.711287],[139.042838,35.709748],[139.046673,35.709484],[139.048422,35.708006],[139.050682,35.707369],[139.052022,35.704904],[139.058538,35.702074],[139.063118,35.700463],[139.064861,35.698155],[139.066736,35.698402],[139.070607,35.697626],[139.072109,35.695408],[139.074808,35.695559],[139.076545,35.694904],[139.077921,35.695625],[139.08166,35.695517],[139.083577,35.694381],[139.084395,35.693077],[139.085705,35.693101],[139.088128,35.691628],[139.092245,35.690571],[139.092966,35.691466],[139.095425,35.69107],[139.097108,35.692266],[139.100017,35.692007],[139.105625,35.691016],[139.108263,35.689742],[139.110494,35.68774],[139.112615,35.684964],[139.116336,35.683885],[139.118933,35.681493],[139.119347,35.680513],[139.12271,35.678377],[139.126851,35.676863],[139.128719,35.675379],[139.131036,35.672045],[139.133515,35.672897],[139.136731,35.672412],[139.138931,35.670544],[139.142854,35.669956],[139.1429,35.669352],[139.14716,35.666817],[139.151396,35.666717],[139.153598,35.666022],[139.161604,35.667907],[139.165143,35.66496],[139.165134,35.663337],[139.167169,35.661832],[139.166931,35.659618],[139.16836,35.658556],[139.168585,35.656695],[139.167779,35.65372],[139.166746,35.652738],[139.167022,35.651013],[139.169338,35.651475],[139.171791,35.650341],[139.175246,35.649732],[139.176118,35.648188],[139.179163,35.645568],[139.181093,35.645744],[139.184056,35.645089],[139.188084,35.646574],[139.189186,35.646417],[139.191534,35.647398],[139.192559,35.650374],[139.194124,35.651824],[139.19573,35.651287],[139.19803,35.652949],[139.201308,35.652537],[139.205265,35.651578],[139.206945,35.649877],[139.211461,35.649117],[139.21479,35.646938],[139.215735,35.64556],[139.214813,35.643961],[139.214463,35.641397],[139.215533,35.639137],[139.215459,35.636943],[139.21665,35.634735],[139.218542,35.633651],[139.21916,35.631972],[139.221434,35.629466],[139.219479,35.626678],[139.220232,35.625572],[139.22545,35.623753],[139.22721,35.621104],[139.228874,35.620226],[139.230385,35.617128],[139.229881,35.614568],[139.232924,35.612371],[139.234552,35.611687],[139.236683,35.609747],[139.23798,35.60935],[139.238638,35.606977],[139.240593,35.606249],[139.242643,35.606286],[139.245388,35.605162],[139.24687,35.605221],[139.250748,35.603201],[139.252224,35.601667],[139.257705,35.604231],[139.2613,35.602853],[139.264775,35.602459],[139.266135,35.605627],[139.265842,35.607351],[139.268799,35.609355],[139.271339,35.60985],[139.274274,35.611047],[139.279879,35.611481],[139.282874,35.613266],[139.285248,35.613389],[139.286055,35.612514],[139.292605,35.611808],[139.294438,35.611124],[139.296845,35.609443],[139.297003,35.608],[139.298714,35.607478],[139.2992,35.606229],[139.301595,35.605999],[139.304772,35.604688],[139.306119,35.605468],[139.309408,35.604212],[139.312596,35.60465],[139.314035,35.604353],[139.320564,35.606516],[139.326195,35.604687],[139.327108,35.603819],[139.329485,35.603682],[139.332136,35.604288],[139.333407,35.603722],[139.335012,35.604406],[139.337891,35.604347],[139.339901,35.605546],[139.341883,35.604545],[139.342445,35.603307],[139.350496,35.600998],[139.353071,35.600805],[139.357933,35.59871],[139.362048,35.599236],[139.366016,35.597626],[139.370247,35.594465],[139.372513,35.594495],[139.375242,35.59389],[139.377045,35.591714],[139.38533,35.588193],[139.388618,35.588533],[139.391085,35.58526],[139.394217,35.585599],[139.394825,35.584117],[139.399148,35.58465],[139.399773,35.581826],[139.40112,35.579779],[139.401243,35.577534],[139.403248,35.575565],[139.406497,35.575822],[139.408977,35.57533],[139.410711,35.571024],[139.413427,35.566247],[139.416234,35.563813],[139.416181,35.561972],[139.417998,35.561918],[139.422441,35.559435],[139.423912,35.555893],[139.426293,35.55403],[139.428719,35.550377],[139.431986,35.548739],[139.433427,35.546332],[139.436007,35.54683],[139.438147,35.545581],[139.440695,35.542969],[139.445097,35.541131],[139.44815,35.537802],[139.448651,35.535248],[139.450579,35.53351],[139.454318,35.531238],[139.454921,35.53015],[139.45825,35.52805],[139.456967,35.525344],[139.454823,35.522741],[139.455155,35.520992],[139.456128,35.520322],[139.460818,35.519379],[139.463285,35.517838],[139.463974,35.516434],[139.464044,35.513349],[139.464848,35.510902],[139.467503,35.507763],[139.468268,35.506206],[139.467801,35.502267],[139.471429,35.50206],[139.473814,35.501252],[139.476383,35.501354],[139.480352,35.502971],[139.484864,35.504048],[139.481131,35.505311],[139.476987,35.511214],[139.480352,35.514734],[139.483283,35.519153],[139.486471,35.520301],[139.48575,35.522348],[139.487469,35.524117],[139.486537,35.526576],[139.487798,35.527882],[139.486789,35.528879],[139.485773,35.531352],[139.486713,35.535606],[139.484841,35.535964],[139.484957,35.538059],[139.483982,35.539181],[139.481637,35.539946],[139.480333,35.543146],[139.480883,35.545958],[139.482393,35.547416],[139.482026,35.550029],[139.48199,35.555629],[139.479728,35.559389],[139.477785,35.560586],[139.476365,35.562499],[139.475223,35.559749],[139.47041,35.560405],[139.469477,35.56244],[139.468292,35.563296],[139.46902,35.564878],[139.469667,35.569498],[139.471533,35.57086],[139.473252,35.573851],[139.47324,35.576674],[139.476006,35.580732],[139.47811,35.580686],[139.480513,35.581676],[139.482203,35.581721],[139.484983,35.584609],[139.486837,35.584696],[139.489869,35.583579],[139.488301,35.578419],[139.486297,35.578535],[139.484784,35.575647],[139.483749,35.571958],[139.482868,35.571384],[139.486413,35.568946],[139.489079,35.563204],[139.489248,35.561807],[139.491031,35.561426],[139.492892,35.562526],[139.494674,35.564856],[139.496267,35.56464],[139.498058,35.5679],[139.500829,35.568534],[139.500602,35.570443],[139.504337,35.571607],[139.506575,35.571716],[139.507349,35.573766],[139.505457,35.574787],[139.502294,35.578094],[139.500624,35.579142],[139.499216,35.58097],[139.497406,35.582095],[139.493927,35.582782],[139.493106,35.584356],[139.494459,35.586307],[139.492884,35.589139],[139.491972,35.588467],[139.486313,35.591653],[139.481886,35.595368],[139.480164,35.594867],[139.479294,35.595744],[139.478389,35.5984],[139.476884,35.599545],[139.473973,35.599697],[139.471192,35.60106],[139.470275,35.603486],[139.466582,35.606582],[139.466665,35.608632],[139.463798,35.609161],[139.463189,35.608084],[139.460634,35.608412],[139.457377,35.607212],[139.455151,35.605161],[139.453373,35.604586],[139.452872,35.607448],[139.449281,35.611776],[139.450719,35.613184],[139.452414,35.615783],[139.452955,35.618108],[139.455348,35.618202],[139.460736,35.622161],[139.462164,35.624877],[139.464158,35.624514],[139.465338,35.624062],[139.465864,35.622376],[139.467862,35.620522],[139.474138,35.619668],[139.476237,35.618887],[139.475987,35.617625],[139.476712,35.615328],[139.478,35.613738],[139.479659,35.613264],[139.481268,35.610057],[139.483507,35.608619],[139.486551,35.608434],[139.488269,35.607157],[139.489069,35.604667],[139.494039,35.605784],[139.497575,35.604869],[139.499765,35.605467],[139.500023,35.60728],[139.495781,35.612359],[139.494416,35.615462],[139.494881,35.617391],[139.498034,35.618429],[139.499217,35.620217],[139.503419,35.622862],[139.506078,35.622824],[139.50961,35.62408],[139.510404,35.62335],[139.512352,35.624439],[139.51437,35.62466],[139.516151,35.625704],[139.516957,35.627887],[139.516598,35.629595],[139.517456,35.630661],[139.52326,35.63217],[139.523392,35.633544],[139.522107,35.634566],[139.521183,35.63677],[139.523392,35.63882],[139.524283,35.641528],[139.525389,35.642648],[139.530888,35.641958],[139.535951,35.639482],[139.540398,35.63873],[139.541422,35.638232],[139.547721,35.636693],[139.549428,35.634375],[139.551037,35.634083],[139.555109,35.634215],[139.558564,35.633746],[139.561971,35.632591],[139.562657,35.63139],[139.566176,35.629452],[139.56563,35.627202],[139.567708,35.626939],[139.571118,35.624411],[139.575526,35.622345],[139.577346,35.621821],[139.580044,35.62202],[139.582785,35.621598],[139.586386,35.620455],[139.590236,35.618431],[139.593101,35.617571],[139.596623,35.618499],[139.600068,35.618399],[139.604737,35.615825],[139.607196,35.615641],[139.608994,35.616477],[139.612192,35.615853],[139.613117,35.614694],[139.615581,35.613328],[139.617941,35.613877],[139.623973,35.610949],[139.624875,35.609762],[139.631166,35.607238],[139.631799,35.605791],[139.634875,35.603628],[139.637291,35.602824],[139.639888,35.60013],[139.648923,35.594876],[139.650433,35.592584],[139.655139,35.590146],[139.656291,35.589728],[139.66333,35.589866],[139.664414,35.589568],[139.667291,35.587182],[139.669309,35.584719],[139.671259,35.578522],[139.676407,35.566038],[139.67879,35.562988],[139.681551,35.561194],[139.686092,35.559373],[139.689618,35.557287],[139.692066,35.556649],[139.697784,35.556129],[139.699866,35.555399],[139.703076,35.553322],[139.704179,35.551826],[139.703534,35.549411],[139.698446,35.545402],[139.697762,35.543757],[139.697943,35.541452],[139.699932,35.538362],[139.702227,35.537027],[139.705742,35.536246],[139.710752,35.536544],[139.717302,35.538004],[139.719508,35.539121],[139.722372,35.541508],[139.726112,35.54347],[139.727609,35.543567],[139.730741,35.542765],[139.732736,35.541203],[139.734638,35.540983],[139.737668,35.544391],[139.739407,35.545125],[139.742129,35.544826],[139.746777,35.543828],[139.750084,35.544584],[139.756487,35.544553],[139.768079,35.539339],[139.776496,35.53447],[139.778785,35.536999],[139.782074,35.538694],[139.784417,35.53538],[139.786545,35.535804],[139.787619,35.534313],[139.794908,35.532136],[139.806244,35.537521],[139.809166,35.53907],[139.807832,35.54059],[139.803956,35.54603],[139.801255,35.548304],[139.785437,35.570561],[139.770997,35.568974],[139.763733,35.560463],[139.76102,35.563163],[139.758592,35.564368],[139.755685,35.56273],[139.753397,35.562251],[139.752964,35.563382],[139.749784,35.566626],[139.750238,35.567378],[139.756007,35.56854],[139.756355,35.569071],[139.754093,35.574485],[139.752607,35.575497],[139.750687,35.575206],[139.750088,35.576702],[139.751722,35.577242],[139.751943,35.579464],[139.747845,35.588691],[139.746541,35.590169],[139.746957,35.592191],[139.747716,35.602719],[139.748483,35.602824],[139.750461,35.605765],[139.750494,35.607376],[139.751573,35.618338],[139.751831,35.62475],[139.750253,35.624824],[139.75199,35.626343],[139.752626,35.634423],[139.754843,35.638812],[139.755533,35.639047],[139.759652,35.636775],[139.760426,35.636778],[139.760354,35.644978],[139.759083,35.644971],[139.759795,35.64798],[139.7613,35.652466],[139.762504,35.651876],[139.764531,35.656117],[139.767211,35.658121],[139.770651,35.65494],[139.769644,35.654262],[139.767239,35.655209],[139.767646,35.651078],[139.768361,35.650373],[139.771629,35.652586],[139.77272,35.651453],[139.769548,35.649172],[139.772788,35.646039],[139.779512,35.650582],[139.780189,35.650545],[139.788526,35.656176],[139.789592,35.656259]],[[139.787382,35.695184],[139.788915,35.694704],[139.788915,35.694704],[139.787382,35.695184]]],[[[139.749637,33.11685],[139.750977,33.11581],[139.752466,33.112274],[139.751834,33.110119],[139.752887,33.108761],[139.753467,33.106352],[139.755133,33.103975],[139.757566,33.102619],[139.761137,33.102531],[139.767012,33.101734],[139.76976,33.100241],[139.772796,33.097722],[139.773429,33.09868],[139.777438,33.099567],[139.776722,33.098156],[139.778831,33.095856],[139.779778,33.092611],[139.780109,33.089489],[139.779558,33.086846],[139.780444,33.081839],[139.78027,33.075638],[139.781063,33.073157],[139.784285,33.069708],[139.785902,33.069374],[139.790459,33.066495],[139.79301,33.065933],[139.794681,33.064608],[139.796197,33.062558],[139.802084,33.06385],[139.80513,33.062212],[139.807614,33.05934],[139.810572,33.05877],[139.812281,33.059631],[139.81439,33.058935],[139.815178,33.059516],[139.818618,33.058797],[139.82001,33.057906],[139.822164,33.055306],[139.824377,33.053381],[139.827231,33.050029],[139.829617,33.048397],[139.831629,33.045994],[139.834208,33.046905],[139.836913,33.050632],[139.836403,33.051896],[139.833467,33.054744],[139.834341,33.062573],[139.833151,33.065722],[139.833819,33.067624],[139.835334,33.067962],[139.83741,33.070124],[139.838873,33.073126],[139.838946,33.074999],[139.84003,33.076003],[139.842389,33.076367],[139.845409,33.075625],[139.846681,33.077021],[139.849949,33.078009],[139.851713,33.077426],[139.854808,33.077452],[139.857499,33.078922],[139.857442,33.080415],[139.859254,33.083758],[139.858655,33.085832],[139.856233,33.088154],[139.854648,33.090766],[139.854373,33.093572],[139.855439,33.096068],[139.857398,33.098386],[139.855255,33.101193],[139.853027,33.102908],[139.851556,33.104628],[139.849868,33.107867],[139.848965,33.11164],[139.84487,33.116286],[139.842355,33.116337],[139.836064,33.118141],[139.830406,33.117122],[139.826295,33.117702],[139.823954,33.119333],[139.820005,33.120229],[139.817044,33.120222],[139.816966,33.123355],[139.814474,33.128307],[139.811944,33.128184],[139.809986,33.130064],[139.807695,33.130371],[139.805569,33.12944],[139.802845,33.132894],[139.800807,33.132482],[139.798033,33.133517],[139.798318,33.135373],[139.796779,33.135622],[139.796956,33.137495],[139.796104,33.138871],[139.796077,33.142474],[139.794979,33.142164],[139.793175,33.143817],[139.788902,33.145298],[139.786749,33.147855],[139.783476,33.14887],[139.781576,33.15136],[139.776397,33.154959],[139.77595,33.156259],[139.773822,33.157422],[139.770894,33.158191],[139.768131,33.157503],[139.767669,33.158224],[139.765259,33.15803],[139.763539,33.158824],[139.759399,33.159567],[139.757428,33.159178],[139.756849,33.158311],[139.753163,33.157939],[139.751422,33.157178],[139.749145,33.156991],[139.746014,33.155623],[139.743835,33.153334],[139.7434,33.151404],[139.741364,33.147332],[139.738988,33.14552],[139.739611,33.143747],[139.738509,33.141612],[139.738324,33.138483],[139.739877,33.134145],[139.739813,33.131417],[139.741194,33.129324],[139.741957,33.126696],[139.743495,33.126096],[139.744579,33.122655],[139.747765,33.118641],[139.749637,33.11685]]],[[[139.37488,34.696889],[139.376608,34.695851],[139.380668,34.695855],[139.383836,34.693789],[139.384695,34.692012],[139.387294,34.689958],[139.39191,34.686902],[139.39392,34.68735],[139.395725,34.683931],[139.399421,34.684095],[139.400151,34.682719],[139.401989,34.681943],[139.404106,34.682557],[139.406472,34.681177],[139.410267,34.680645],[139.411342,34.681623],[139.416097,34.681107],[139.420798,34.68241],[139.423556,34.682098],[139.425265,34.682668],[139.426767,34.681089],[139.428241,34.681306],[139.429094,34.679894],[139.431206,34.678531],[139.433745,34.678195],[139.438685,34.678669],[139.440246,34.679881],[139.44078,34.681994],[139.438545,34.68487],[139.437775,34.685101],[139.436377,34.687537],[139.437205,34.688738],[139.439285,34.687727],[139.439353,34.685464],[139.443664,34.684321],[139.44474,34.684535],[139.444299,34.688584],[139.445794,34.689841],[139.44658,34.692932],[139.450004,34.696527],[139.449541,34.698276],[139.447725,34.699992],[139.445931,34.700557],[139.443704,34.70298],[139.443855,34.707078],[139.444897,34.710688],[139.448692,34.71313],[139.449274,34.715641],[139.448783,34.719598],[139.44611,34.722427],[139.444821,34.725205],[139.445489,34.728074],[139.445044,34.730727],[139.443882,34.731986],[139.444234,34.733781],[139.445515,34.735717],[139.446697,34.736107],[139.448078,34.738282],[139.448883,34.741031],[139.448132,34.744422],[139.445661,34.74723],[139.443374,34.747697],[139.442085,34.75001],[139.441654,34.75184],[139.440516,34.753574],[139.440993,34.755835],[139.439721,34.760203],[139.438846,34.761131],[139.437876,34.76432],[139.437169,34.764755],[139.436793,34.767631],[139.433201,34.772365],[139.428831,34.775237],[139.424698,34.778674],[139.422108,34.781747],[139.420654,34.78107],[139.417942,34.781949],[139.417263,34.782829],[139.414666,34.783775],[139.411982,34.786828],[139.407973,34.786193],[139.405693,34.787615],[139.403125,34.787083],[139.399993,34.788057],[139.398007,34.787876],[139.394642,34.788859],[139.390059,34.792042],[139.389251,34.791552],[139.391617,34.78973],[139.389927,34.788611],[139.388727,34.789305],[139.38422,34.789998],[139.382114,34.791374],[139.3805,34.794334],[139.377947,34.793899],[139.375839,34.794943],[139.374403,34.796862],[139.372302,34.798436],[139.368143,34.79639],[139.366789,34.796421],[139.363523,34.798284],[139.360424,34.798865],[139.360823,34.796885],[139.359976,34.796436],[139.358782,34.793214],[139.357191,34.79176],[139.355929,34.791518],[139.353701,34.789256],[139.352326,34.784251],[139.350395,34.783876],[139.349565,34.782551],[139.349753,34.778776],[139.349336,34.775003],[139.351535,34.771678],[139.351975,34.769519],[139.350882,34.766731],[139.348915,34.766044],[139.348785,34.76244],[139.349422,34.760322],[139.349099,34.75903],[139.350659,34.756808],[139.352,34.753497],[139.351637,34.752101],[139.353133,34.750334],[139.352782,34.748542],[139.353226,34.74617],[139.356231,34.743261],[139.356062,34.739863],[139.356836,34.735057],[139.353103,34.730862],[139.353231,34.726977],[139.352366,34.725076],[139.352504,34.719165],[139.353516,34.717243],[139.356124,34.715676],[139.356912,34.714244],[139.361046,34.710302],[139.359883,34.707367],[139.359192,34.702],[139.360975,34.701985],[139.364787,34.700528],[139.367752,34.700498],[139.369283,34.699898],[139.372573,34.699621],[139.37488,34.696889]]],[[[139.499934,34.046768],[139.501113,34.04578],[139.506405,34.047767],[139.509314,34.047618],[139.509725,34.048367],[139.51233,34.048815],[139.517343,34.047912],[139.518967,34.048103],[139.521724,34.047178],[139.522425,34.048432],[139.525355,34.049438],[139.528628,34.046767],[139.531227,34.046861],[139.533404,34.048884],[139.534553,34.053153],[139.538362,34.05398],[139.540404,34.056221],[139.5423,34.056295],[139.545605,34.058203],[139.54634,34.057849],[139.550991,34.058769],[139.553555,34.060265],[139.555329,34.062534],[139.555204,34.063365],[139.55957,34.065672],[139.559847,34.067237],[139.560984,34.068755],[139.56272,34.068701],[139.562757,34.071119],[139.563738,34.073705],[139.563034,34.075553],[139.56293,34.077706],[139.563893,34.079442],[139.562737,34.081821],[139.561625,34.082668],[139.561168,34.085198],[139.561675,34.087013],[139.563418,34.088628],[139.562871,34.090305],[139.565245,34.093758],[139.56561,34.095775],[139.565327,34.097952],[139.563763,34.100678],[139.565224,34.10221],[139.563233,34.102625],[139.563356,34.10549],[139.56159,34.108106],[139.558959,34.110892],[139.555442,34.112579],[139.551262,34.116222],[139.547641,34.116761],[139.54676,34.119796],[139.544367,34.121345],[139.541365,34.122377],[139.539335,34.123814],[139.535938,34.123389],[139.533949,34.123898],[139.529918,34.124098],[139.529507,34.125148],[139.527478,34.125203],[139.525069,34.124114],[139.522638,34.12489],[139.519231,34.123855],[139.51753,34.122012],[139.513906,34.120534],[139.51101,34.120348],[139.506541,34.122683],[139.503652,34.121546],[139.501565,34.121306],[139.49851,34.121813],[139.496728,34.120357],[139.492791,34.119627],[139.49017,34.11536],[139.489212,34.112535],[139.491834,34.109232],[139.491799,34.108086],[139.493951,34.105543],[139.494136,34.104559],[139.492963,34.102496],[139.491417,34.10128],[139.488342,34.100728],[139.487813,34.097873],[139.488388,34.095984],[139.485714,34.093148],[139.483252,34.091938],[139.482238,34.090289],[139.48094,34.086837],[139.482261,34.08484],[139.481686,34.08317],[139.47822,34.08022],[139.476481,34.079788],[139.474007,34.078347],[139.473174,34.076986],[139.474286,34.075674],[139.474554,34.073936],[139.476364,34.07273],[139.47817,34.072671],[139.480175,34.070642],[139.479906,34.067859],[139.48183,34.067547],[139.480869,34.065276],[139.478785,34.065242],[139.477862,34.062859],[139.477614,34.060198],[139.478817,34.059379],[139.479155,34.056989],[139.481095,34.05696],[139.480991,34.054184],[139.482378,34.05149],[139.484705,34.052551],[139.487801,34.052382],[139.489811,34.051429],[139.492086,34.048764],[139.494057,34.048901],[139.496847,34.048331],[139.499934,34.046768]]],[[[142.124475,26.705175],[142.125441,26.702878],[142.12702,26.701202],[142.128223,26.701356],[142.128704,26.698996],[142.128308,26.696742],[142.128656,26.6953],[142.130086,26.694268],[142.130962,26.690353],[142.130806,26.689076],[142.133646,26.686535],[142.135323,26.685972],[142.136575,26.684179],[142.136452,26.681528],[142.143222,26.676774],[142.14476,26.676317],[142.145127,26.674928],[142.143665,26.672205],[142.144408,26.670828],[142.143361,26.66895],[142.142279,26.668874],[142.14168,26.666554],[142.145492,26.666669],[142.146413,26.667986],[142.147772,26.66759],[142.149311,26.665873],[142.14924,26.662061],[142.145214,26.658241],[142.145181,26.656475],[142.14702,26.656834],[142.146399,26.652862],[142.148913,26.650923],[142.148469,26.649465],[142.149419,26.648431],[142.1519,26.647751],[142.152884,26.646363],[142.151695,26.645597],[142.154012,26.637275],[142.154086,26.635944],[142.156434,26.635679],[142.158499,26.638928],[142.160708,26.639919],[142.161304,26.634091],[142.161022,26.631781],[142.161834,26.630326],[142.164196,26.63009],[142.16507,26.631364],[142.167578,26.631556],[142.169543,26.632272],[142.17116,26.630999],[142.172149,26.628255],[142.173103,26.628178],[142.173245,26.625686],[142.174173,26.625614],[142.176146,26.623859],[142.174713,26.62272],[142.176267,26.621541],[142.177316,26.619249],[142.176548,26.616417],[142.177862,26.615495],[142.176781,26.613663],[142.175164,26.61271],[142.173628,26.609934],[142.176456,26.609619],[142.177604,26.607788],[142.178823,26.607978],[142.181618,26.61008],[142.182189,26.611999],[142.181908,26.61376],[142.180919,26.61418],[142.18089,26.616419],[142.181792,26.620603],[142.181859,26.622669],[142.180245,26.624284],[142.180384,26.627147],[142.181107,26.628409],[142.180101,26.629599],[142.180445,26.631081],[142.177219,26.634117],[142.172726,26.636127],[142.173251,26.639194],[142.17123,26.643434],[142.173291,26.645248],[142.173266,26.646528],[142.17457,26.647961],[142.173814,26.652653],[142.17434,26.654371],[142.175929,26.655066],[142.178319,26.654755],[142.180276,26.653116],[142.184188,26.654711],[142.184722,26.655802],[142.188427,26.655438],[142.188277,26.658689],[142.187241,26.659583],[142.184672,26.65846],[142.184089,26.659793],[142.181981,26.659389],[142.182669,26.658148],[142.182292,26.656815],[142.18067,26.656984],[142.179211,26.655461],[142.176012,26.656683],[142.175033,26.655778],[142.172664,26.656198],[142.169489,26.658359],[142.167571,26.657925],[142.164528,26.660918],[142.163536,26.66257],[142.163866,26.664339],[142.162175,26.666585],[142.162758,26.670113],[142.161644,26.672882],[142.163651,26.676167],[142.16403,26.6778],[142.165364,26.678125],[142.165288,26.679846],[142.167035,26.680953],[142.166165,26.682753],[142.166025,26.684723],[142.167698,26.685611],[142.168495,26.689895],[142.166406,26.689152],[142.166062,26.687438],[142.164913,26.686847],[142.159321,26.686865],[142.158759,26.686117],[142.153744,26.684038],[142.149745,26.683683],[142.146578,26.685331],[142.147197,26.687275],[142.14635,26.690865],[142.14549,26.691257],[142.1458,26.693383],[142.148772,26.694639],[142.150927,26.694241],[142.151254,26.697231],[142.154437,26.698996],[142.156314,26.699019],[142.156836,26.699831],[142.160285,26.701705],[142.161591,26.700726],[142.163955,26.700373],[142.165019,26.702574],[142.158689,26.703639],[142.157932,26.706219],[142.154855,26.708641],[142.153325,26.708582],[142.152933,26.706388],[142.147675,26.707608],[142.145514,26.706249],[142.143425,26.706387],[142.14387,26.707631],[142.142379,26.708364],[142.141293,26.707275],[142.141074,26.705385],[142.142297,26.703467],[142.141324,26.701372],[142.143127,26.698848],[142.140925,26.699145],[142.136257,26.700428],[142.134138,26.699607],[142.133537,26.702297],[142.131055,26.703923],[142.130725,26.705628],[142.131493,26.706229],[142.12958,26.7078],[142.1299,26.709411],[142.127767,26.709651],[142.128458,26.711083],[142.124689,26.714471],[142.123481,26.714089],[142.1226,26.710612],[142.123304,26.709569],[142.123348,26.707467],[142.122736,26.706642],[142.124475,26.705175]]],[[[139.24981,34.343142],[139.25256,34.339299],[139.255372,34.338269],[139.25775,34.335765],[139.260907,34.334141],[139.265928,34.332905],[139.270637,34.330949],[139.271851,34.330889],[139.272241,34.336767],[139.273187,34.340753],[139.275859,34.343419],[139.276278,34.347817],[139.276008,34.353413],[139.276011,34.362183],[139.275808,34.369621],[139.276543,34.381863],[139.277059,34.386157],[139.277882,34.390354],[139.279726,34.393608],[139.283112,34.397438],[139.284506,34.398528],[139.285236,34.400085],[139.28822,34.400891],[139.289846,34.402573],[139.289104,34.404994],[139.28934,34.406094],[139.291362,34.408168],[139.288684,34.409754],[139.286604,34.411513],[139.286765,34.414168],[139.288858,34.415728],[139.291559,34.418446],[139.2906,34.424148],[139.288452,34.425523],[139.28852,34.426864],[139.285833,34.428842],[139.284076,34.428584],[139.282683,34.430468],[139.280799,34.430478],[139.280523,34.426858],[139.281742,34.424033],[139.281151,34.420839],[139.279551,34.418025],[139.276433,34.415773],[139.273861,34.415284],[139.272482,34.416681],[139.268688,34.415386],[139.267022,34.413384],[139.267839,34.411581],[139.266113,34.410086],[139.267123,34.40826],[139.263789,34.405974],[139.260777,34.40455],[139.258969,34.402136],[139.25572,34.40028],[139.25649,34.398753],[139.255396,34.397802],[139.255199,34.396199],[139.257339,34.394622],[139.256506,34.387717],[139.255594,34.383833],[139.254642,34.382933],[139.253711,34.379073],[139.252459,34.376441],[139.2489,34.370967],[139.248143,34.370855],[139.245852,34.367873],[139.241758,34.370229],[139.241116,34.369616],[139.243337,34.367881],[139.243194,34.36522],[139.242042,34.363863],[139.244307,34.361225],[139.24524,34.35896],[139.245729,34.354338],[139.245067,34.353605],[139.244488,34.348492],[139.249162,34.345074],[139.24981,34.343142]]],[[[141.293352,24.749852],[141.293662,24.751316],[141.29639,24.753358],[141.303203,24.75642],[141.30414,24.756482],[141.308585,24.758513],[141.313077,24.759893],[141.316738,24.761656],[141.320813,24.763233],[141.323965,24.764053],[141.327051,24.76547],[141.332052,24.768534],[141.335319,24.769587],[141.337865,24.769658],[141.340387,24.770956],[141.343386,24.771653],[141.345757,24.77299],[141.346738,24.775628],[141.34758,24.77599],[141.349324,24.778528],[141.34986,24.780188],[141.350186,24.786089],[141.349751,24.787954],[141.347199,24.792578],[141.346983,24.796057],[141.345066,24.79801],[141.341092,24.803237],[141.340224,24.804941],[141.33718,24.808817],[141.330329,24.81332],[141.326267,24.814149],[141.32011,24.81361],[141.31715,24.811897],[141.31387,24.811888],[141.312216,24.81145],[141.309154,24.809211],[141.304469,24.806811],[141.30435,24.805162],[141.301789,24.80201],[141.299112,24.799942],[141.295528,24.797669],[141.289963,24.794879],[141.289272,24.793318],[141.287428,24.792096],[141.286289,24.790492],[141.285089,24.785913],[141.285986,24.785258],[141.288245,24.785774],[141.290774,24.783054],[141.291765,24.77826],[141.291416,24.774485],[141.292002,24.772976],[141.291281,24.770582],[141.289462,24.766458],[141.288755,24.763195],[141.289152,24.761819],[141.287793,24.758973],[141.28635,24.757008],[141.284781,24.752838],[141.284847,24.750321],[141.285808,24.748361],[141.285617,24.745926],[141.288207,24.746029],[141.291796,24.748239],[141.293352,24.749852]]],[[[142.208232,27.084173],[142.207205,27.082481],[142.20684,27.077943],[142.205104,27.076642],[142.205804,27.074863],[142.203125,27.072942],[142.202021,27.072929],[142.198761,27.075162],[142.196865,27.074646],[142.192216,27.075421],[142.190799,27.073658],[142.186659,27.072718],[142.18378,27.075265],[142.182848,27.075112],[142.181714,27.07282],[142.182399,27.070986],[142.184446,27.070532],[142.187179,27.07164],[142.187942,27.069792],[142.189592,27.070037],[142.191126,27.068245],[142.193283,27.067154],[142.191395,27.065179],[142.193515,27.064212],[142.194854,27.06286],[142.19527,27.061053],[142.194214,27.059316],[142.192902,27.059358],[142.188208,27.061531],[142.187741,27.056899],[142.18952,27.055514],[142.18907,27.052462],[142.189776,27.05044],[142.188944,27.0486],[142.186379,27.048204],[142.185119,27.045742],[142.184008,27.045518],[142.185282,27.043027],[142.187195,27.044816],[142.189773,27.04391],[142.191031,27.042427],[142.194591,27.041961],[142.19567,27.043979],[142.198334,27.045527],[142.206285,27.04412],[142.208756,27.040165],[142.209871,27.040854],[142.213111,27.039535],[142.214541,27.03977],[142.21737,27.041605],[142.219541,27.041375],[142.220534,27.040456],[142.218849,27.037603],[142.21956,27.036268],[142.226556,27.035912],[142.229389,27.035946],[142.229652,27.037748],[142.228441,27.038882],[142.225911,27.038892],[142.225258,27.041625],[142.22274,27.04423],[142.223648,27.046064],[142.225221,27.045154],[142.226072,27.045839],[142.225163,27.048031],[142.226303,27.049822],[142.221915,27.052869],[142.222349,27.053964],[142.225059,27.053556],[142.226282,27.055147],[142.228668,27.056847],[142.229731,27.056083],[142.229679,27.054548],[142.233525,27.051437],[142.233915,27.05008],[142.235286,27.049543],[142.237473,27.051346],[142.237234,27.053916],[142.234696,27.056214],[142.231861,27.056816],[142.231863,27.058161],[142.230144,27.059493],[142.230269,27.060723],[142.231775,27.062792],[142.231815,27.064667],[142.231159,27.066003],[142.230772,27.069041],[142.231337,27.071482],[142.232769,27.072914],[142.232431,27.074127],[142.233206,27.075476],[142.232855,27.077508],[142.22841,27.081299],[142.2259,27.080678],[142.224364,27.08217],[142.225057,27.083066],[142.22315,27.085934],[142.224931,27.087875],[142.224766,27.08983],[142.223567,27.090767],[142.220967,27.094594],[142.219537,27.095821],[142.217705,27.098393],[142.217673,27.100132],[142.214803,27.100439],[142.211438,27.103455],[142.210541,27.102569],[142.208945,27.103131],[142.205518,27.103395],[142.204404,27.105458],[142.197583,27.104508],[142.195734,27.104969],[142.194766,27.103541],[142.193477,27.103826],[142.193314,27.105959],[142.190953,27.104487],[142.188788,27.104578],[142.187116,27.10552],[142.185928,27.104531],[142.18298,27.103132],[142.181691,27.100407],[142.182898,27.097039],[142.182034,27.09529],[142.182574,27.093138],[142.185969,27.091317],[142.186247,27.088582],[142.187842,27.087995],[142.190406,27.089266],[142.192181,27.093002],[142.195345,27.094502],[142.196176,27.094375],[142.19815,27.096052],[142.198907,27.097731],[142.201031,27.099403],[142.202812,27.098569],[142.201333,27.095805],[142.203124,27.095125],[142.203746,27.093649],[142.20331,27.091307],[142.203762,27.090072],[142.201965,27.087438],[142.203893,27.086392],[142.20412,27.084921],[142.206388,27.086229],[142.208232,27.084173]]],[[[139.124941,34.189578],[139.125576,34.186818],[139.12805,34.187103],[139.128669,34.185708],[139.130383,34.184735],[139.132613,34.185615],[139.133265,34.187018],[139.135452,34.187119],[139.136909,34.18641],[139.139413,34.186158],[139.142992,34.187671],[139.144372,34.188758],[139.146379,34.188929],[139.145813,34.191055],[139.146414,34.193229],[139.146328,34.195509],[139.14889,34.196957],[139.149107,34.195425],[139.150603,34.194958],[139.15157,34.192752],[139.155292,34.195204],[139.156484,34.197482],[139.155842,34.199129],[139.154244,34.198866],[139.153424,34.201185],[139.157278,34.205058],[139.162021,34.206599],[139.165587,34.208307],[139.168487,34.208616],[139.169829,34.206786],[139.170383,34.20488],[139.172001,34.205791],[139.173664,34.205557],[139.176223,34.207659],[139.174668,34.208233],[139.174503,34.210432],[139.173447,34.211494],[139.173292,34.213753],[139.175101,34.216284],[139.174362,34.217904],[139.172491,34.218581],[139.171741,34.219755],[139.171762,34.224264],[139.170348,34.231117],[139.167696,34.234146],[139.163367,34.235655],[139.162254,34.23642],[139.158205,34.237763],[139.156529,34.239274],[139.152223,34.239957],[139.150273,34.239295],[139.148756,34.239692],[139.143199,34.243782],[139.139607,34.243239],[139.137135,34.241235],[139.13759,34.237748],[139.13603,34.237244],[139.134239,34.234947],[139.136054,34.233431],[139.135662,34.231601],[139.136494,34.230748],[139.136962,34.228492],[139.136887,34.225973],[139.135817,34.224323],[139.134175,34.223456],[139.131393,34.22349],[139.12838,34.222812],[139.128429,34.221147],[139.130961,34.21903],[139.133576,34.218391],[139.133631,34.21715],[139.130647,34.216248],[139.131141,34.212134],[139.132764,34.210725],[139.132623,34.207312],[139.133118,34.205057],[139.132503,34.202304],[139.131644,34.20123],[139.12907,34.20132],[139.125708,34.200706],[139.124946,34.199788],[139.121783,34.199018],[139.121882,34.197188],[139.120623,34.195668],[139.120172,34.193017],[139.120632,34.190497],[139.122785,34.188188],[139.124941,34.189578]]],[[[139.624966,33.857701],[139.628184,33.861907],[139.628788,33.863585],[139.631277,33.867757],[139.631905,33.869987],[139.631657,33.871902],[139.630029,33.873946],[139.6295,33.87615],[139.627953,33.877922],[139.625079,33.883784],[139.61999,33.889885],[139.618334,33.89232],[139.617039,33.892514],[139.613597,33.894929],[139.610679,33.897871],[139.605414,33.900788],[139.603356,33.901074],[139.600361,33.900735],[139.599111,33.900041],[139.590896,33.89807],[139.590264,33.896655],[139.587516,33.894236],[139.582353,33.888452],[139.579432,33.884661],[139.578089,33.882468],[139.5767,33.877682],[139.577279,33.874844],[139.577092,33.869172],[139.576723,33.866497],[139.57715,33.864364],[139.579195,33.860417],[139.583437,33.857834],[139.591,33.854858],[139.603783,33.854599],[139.610118,33.85374],[139.61415,33.852444],[139.620012,33.851848],[139.623845,33.85538],[139.624966,33.857701]]],[[[142.190374,27.12066],[142.194112,27.123268],[142.198401,27.123188],[142.201309,27.12198],[142.201948,27.119934],[142.206341,27.118018],[142.205722,27.11604],[142.203085,27.11424],[142.200585,27.111271],[142.20077,27.109798],[142.204314,27.110381],[142.206744,27.109144],[142.209951,27.108861],[142.212618,27.109617],[142.216504,27.108471],[142.220038,27.108878],[142.220695,27.110858],[142.222746,27.110127],[142.226038,27.111138],[142.229099,27.10987],[142.230765,27.110311],[142.231695,27.109191],[142.233884,27.1091],[142.234135,27.109985],[142.236084,27.111594],[142.235344,27.114166],[142.228981,27.114501],[142.227681,27.11496],[142.226069,27.11694],[142.227303,27.118252],[142.226207,27.119845],[142.226617,27.124063],[142.224031,27.123014],[142.222558,27.126296],[142.220431,27.127092],[142.220113,27.128326],[142.218569,27.129565],[142.219639,27.132663],[142.216888,27.133582],[142.216457,27.132541],[142.21389,27.131403],[142.209821,27.130284],[142.209265,27.129403],[142.205029,27.128863],[142.2052,27.131046],[142.206789,27.132753],[142.206884,27.134059],[142.205114,27.134859],[142.203574,27.134536],[142.202199,27.133124],[142.200288,27.132701],[142.20012,27.134078],[142.198219,27.134792],[142.194576,27.137842],[142.195988,27.13955],[142.193726,27.141037],[142.194022,27.143643],[142.191183,27.144181],[142.190862,27.139899],[142.189853,27.139362],[142.188985,27.136969],[142.193111,27.133513],[142.190071,27.131945],[142.187949,27.12976],[142.189132,27.126526],[142.19081,27.124773],[142.190199,27.123247],[142.18868,27.122867],[142.187124,27.121534],[142.190374,27.12066]]],[[[139.749475,35.588862],[139.754074,35.57834],[139.755918,35.577067],[139.762477,35.577156],[139.764026,35.578021],[139.767557,35.581467],[139.769088,35.580212],[139.766691,35.577143],[139.783005,35.577099],[139.784965,35.577631],[139.787408,35.580058],[139.781768,35.584481],[139.778534,35.586484],[139.777162,35.585227],[139.775488,35.585181],[139.773178,35.58687],[139.776779,35.590288],[139.772878,35.595515],[139.773149,35.595757],[139.763479,35.608717],[139.763879,35.608923],[139.761946,35.614649],[139.757995,35.617673],[139.753019,35.617648],[139.751673,35.604691],[139.749004,35.600728],[139.748544,35.594279],[139.749107,35.59219],[139.750182,35.591354],[139.749475,35.588862]]],[[[142.201864,27.166273],[142.201346,27.167091],[142.202161,27.169136],[142.198059,27.168826],[142.198072,27.171002],[142.196403,27.172746],[142.195116,27.173288],[142.19525,27.175089],[142.194603,27.17639],[142.195291,27.179122],[142.19713,27.179705],[142.198467,27.180979],[142.19992,27.181374],[142.200084,27.182831],[142.197264,27.182507],[142.195808,27.184612],[142.191224,27.185853],[142.189183,27.187081],[142.188332,27.189164],[142.185077,27.187235],[142.185751,27.184674],[142.187698,27.184193],[142.187575,27.182096],[142.185676,27.179974],[142.185883,27.177339],[142.187552,27.176694],[142.187242,27.17392],[142.187687,27.172312],[142.185578,27.171439],[142.183791,27.168674],[142.184295,27.166619],[142.183267,27.166049],[142.183934,27.162625],[142.183818,27.160592],[142.184403,27.159298],[142.183111,27.158082],[142.181152,27.157919],[142.181882,27.156567],[142.184446,27.156884],[142.186351,27.154653],[142.184693,27.152583],[142.185614,27.150433],[142.184662,27.149524],[142.18119,27.150818],[142.179629,27.148346],[142.180641,27.14645],[142.187269,27.144722],[142.188258,27.146296],[142.187553,27.147654],[142.187921,27.150184],[142.189346,27.150698],[142.191415,27.150174],[142.192391,27.150619],[142.193053,27.152498],[142.196257,27.154566],[142.197529,27.155858],[142.197559,27.157087],[142.199394,27.158163],[142.197744,27.159866],[142.200331,27.162634],[142.200696,27.164057],[142.200024,27.165629],[142.201864,27.166273]]],[[[139.768732,35.626436],[139.767585,35.625785],[139.767657,35.622077],[139.770626,35.618736],[139.773441,35.620266],[139.773168,35.618505],[139.78673,35.60184],[139.792628,35.609579],[139.780992,35.623883],[139.784947,35.626349],[139.782376,35.629509],[139.777006,35.636094],[139.773133,35.634409],[139.771366,35.634326],[139.770858,35.633074],[139.772659,35.632574],[139.773216,35.633949],[139.774775,35.634829],[139.777102,35.632269],[139.777167,35.631419],[139.772171,35.628257],[139.768732,35.626436]]],[[[139.757902,32.446949],[139.759072,32.447739],[139.760286,32.446321],[139.764579,32.445674],[139.768347,32.443007],[139.771346,32.443527],[139.773371,32.444748],[139.776301,32.44569],[139.779118,32.447277],[139.78077,32.44926],[139.781149,32.45298],[139.780152,32.453773],[139.780792,32.457137],[139.779417,32.459505],[139.777497,32.461613],[139.775823,32.462211],[139.771765,32.465749],[139.76964,32.469007],[139.767261,32.470284],[139.762752,32.471278],[139.758854,32.473552],[139.755226,32.47177],[139.754492,32.467464],[139.754295,32.463644],[139.754958,32.46075],[139.754566,32.453915],[139.754681,32.451436],[139.755813,32.449724],[139.758636,32.448268],[139.757902,32.446949]]],[[[139.217203,34.33312],[139.21467,34.333104],[139.214868,34.334157],[139.212836,34.336952],[139.211382,34.335865],[139.209235,34.336738],[139.208016,34.335299],[139.206088,34.334681],[139.208801,34.331204],[139.20659,34.328262],[139.204359,34.326721],[139.201781,34.328949],[139.200722,34.326576],[139.201679,34.326038],[139.197673,34.324341],[139.195514,34.322706],[139.193923,34.320267],[139.194906,34.318203],[139.196621,34.317586],[139.197846,34.316101],[139.200924,34.316133],[139.202185,34.318058],[139.202837,34.320988],[139.204124,34.31995],[139.205188,34.321138],[139.207469,34.321125],[139.206991,34.319741],[139.208081,34.317495],[139.21102,34.318124],[139.211926,34.316497],[139.213447,34.316223],[139.215011,34.317772],[139.216514,34.317105],[139.217971,34.320295],[139.220281,34.322473],[139.22263,34.323779],[139.224458,34.323348],[139.226645,34.327722],[139.225506,34.33093],[139.217203,34.33312]]],[[[141.274721,25.422311],[141.2752,25.42029],[141.276144,25.419432],[141.278365,25.418788],[141.281776,25.418924],[141.284665,25.420081],[141.287648,25.42077],[141.290476,25.422379],[141.293281,25.425718],[141.293222,25.429039],[141.292276,25.433142],[141.293178,25.43647],[141.29251,25.439267],[141.290635,25.440519],[141.290244,25.443578],[141.288148,25.447333],[141.283614,25.44894],[141.280135,25.447969],[141.278314,25.446501],[141.273717,25.44167],[141.27281,25.439423],[141.272617,25.433971],[141.272126,25.431663],[141.272226,25.429388],[141.274721,25.422311]]],[[[139.790624,35.592412],[139.792146,35.594253],[139.818704,35.608667],[139.818944,35.608876],[139.810593,35.613184],[139.798948,35.606874],[139.79855,35.607071],[139.791141,35.597134],[139.790263,35.595455],[139.791495,35.593951],[139.790624,35.592412]]],[[[139.274856,34.511424],[139.276193,34.511019],[139.279189,34.511174],[139.281684,34.512181],[139.284981,34.515571],[139.291048,34.520727],[139.292843,34.523841],[139.292389,34.525979],[139.289954,34.529158],[139.287527,34.530655],[139.283071,34.532403],[139.279134,34.531794],[139.273662,34.531836],[139.271478,34.530097],[139.269378,34.527773],[139.267891,34.525148],[139.267396,34.521152],[139.268211,34.51731],[139.270605,34.513975],[139.272381,34.512371],[139.274856,34.511424]]],[[[139.681625,33.123574],[139.684949,33.117624],[139.68883,33.116168],[139.689866,33.117001],[139.693805,33.117616],[139.698171,33.116757],[139.698649,33.115528],[139.701024,33.117591],[139.699985,33.118378],[139.699139,33.120639],[139.699015,33.124547],[139.697241,33.127742],[139.695257,33.129246],[139.691458,33.13028],[139.689533,33.131652],[139.687651,33.134037],[139.687377,33.135409],[139.685975,33.136402],[139.683002,33.136612],[139.681107,33.134968],[139.678591,33.134497],[139.676517,33.134756],[139.675374,33.13352],[139.676649,33.132034],[139.675402,33.130759],[139.677064,33.129507],[139.680654,33.12581],[139.681625,33.123574]]],[[[142.124345,27.68335],[142.125366,27.684199],[142.126872,27.683554],[142.127209,27.681738],[142.12893,27.681628],[142.129359,27.680078],[142.131452,27.679396],[142.133229,27.680166],[142.134645,27.68173],[142.135423,27.680086],[142.138896,27.678904],[142.137813,27.674456],[142.139663,27.672075],[142.140916,27.671502],[142.143588,27.671648],[142.145676,27.670588],[142.147143,27.671437],[142.148814,27.673546],[142.14831,27.674476],[142.148432,27.676896],[142.147936,27.679656],[142.148641,27.680835],[142.147741,27.682041],[142.148127,27.683623],[142.146468,27.685079],[142.143194,27.686366],[142.142643,27.68852],[142.14011,27.688588],[142.14039,27.686876],[142.138367,27.686375],[142.136246,27.687363],[142.132659,27.68553],[142.132261,27.687901],[142.131008,27.689262],[142.128979,27.68784],[142.125213,27.686991],[142.125056,27.685533],[142.123839,27.684644],[142.124345,27.68335]]],[[[141.457247,24.225082],[141.459249,24.224754],[141.461376,24.225499],[141.464286,24.225958],[141.468809,24.227182],[141.46995,24.229886],[141.471202,24.231247],[141.472008,24.233132],[141.472919,24.239568],[141.472239,24.241914],[141.470965,24.241851],[141.46208,24.245103],[141.458597,24.244792],[141.455038,24.241874],[141.45361,24.236407],[141.453284,24.229202],[141.453733,24.226894],[141.455653,24.225262],[141.457247,24.225082]]],[[[139.813551,35.589656],[139.816667,35.591347],[139.817256,35.591667],[139.82054,35.593451],[139.827062,35.596938],[139.820322,35.607395],[139.805596,35.599405],[139.807435,35.597143],[139.813551,35.589656]]],[[[140.887497,27.249905],[140.886026,27.251266],[140.880395,27.253372],[140.877301,27.253918],[140.873355,27.253708],[140.871143,27.250822],[140.871157,27.24692],[140.869271,27.243981],[140.869295,27.242962],[140.872414,27.240108],[140.873688,27.238127],[140.876253,27.237602],[140.877669,27.237945],[140.881916,27.237017],[140.884063,27.237157],[140.886671,27.238924],[140.888921,27.242761],[140.890016,27.245655],[140.889078,27.248229],[140.887497,27.249905]]],[[[139.808336,35.532213],[139.807089,35.531107],[139.810964,35.528198],[139.826028,35.54157],[139.823088,35.543844],[139.819802,35.542383],[139.808336,35.532213]]],[[[139.828046,35.612035],[139.832487,35.616227],[139.835524,35.61249],[139.8386,35.61416],[139.840111,35.632067],[139.839219,35.631246],[139.837012,35.631773],[139.825851,35.630699],[139.827417,35.619798],[139.829411,35.61999],[139.831712,35.621242],[139.832936,35.619739],[139.83063,35.618486],[139.832447,35.616267],[139.828046,35.612035]]],[[[142.174417,27.624069],[142.17566,27.623057],[142.179046,27.624954],[142.180269,27.622843],[142.181909,27.623209],[142.183255,27.620949],[142.185419,27.619457],[142.187244,27.622509],[142.184879,27.625766],[142.183094,27.630383],[142.180995,27.630783],[142.179587,27.630407],[142.178381,27.632074],[142.178202,27.633673],[142.176041,27.633951],[142.175067,27.635887],[142.173797,27.635199],[142.173441,27.6336],[142.172191,27.6331],[142.171284,27.630986],[142.172121,27.630251],[142.172178,27.628213],[142.174417,27.624069]]],[[[153.97326,24.284095],[153.977564,24.28324],[153.982122,24.281234],[153.984428,24.280864],[153.986464,24.282051],[153.986554,24.28396],[153.985012,24.29],[153.984669,24.294146],[153.984939,24.296367],[153.983577,24.297468],[153.981564,24.29483],[153.977763,24.290803],[153.972444,24.286566],[153.971509,24.284309],[153.97326,24.284095]]],[[[139.794477,35.592182],[139.805832,35.585448],[139.811715,35.588639],[139.805614,35.596159],[139.804426,35.59764],[139.803778,35.59842],[139.79343,35.592803],[139.794477,35.592182]]],[[[142.157668,26.543764],[142.157932,26.546751],[142.159979,26.547091],[142.161114,26.549078],[142.160869,26.552786],[142.159014,26.555853],[142.15953,26.557839],[142.161306,26.559366],[142.1603,26.561539],[142.156774,26.56195],[142.154989,26.564286],[142.153683,26.564567],[142.152169,26.563506],[142.153178,26.559403],[142.152081,26.558646],[142.153464,26.555518],[142.153782,26.552229],[142.154782,26.551686],[142.154829,26.549304],[142.15107,26.548428],[142.151292,26.546614],[142.153248,26.546785],[142.153244,26.545564],[142.155983,26.543363],[142.157668,26.543764]]],[[[142.124289,26.603943],[142.126335,26.602357],[142.127412,26.599288],[142.125686,26.598477],[142.125259,26.595594],[142.127125,26.595918],[142.1287,26.597113],[142.128929,26.595007],[142.132918,26.596394],[142.133966,26.598561],[142.13593,26.601396],[142.13466,26.605374],[142.133528,26.606572],[142.133817,26.608396],[142.132496,26.608729],[142.132754,26.610106],[142.130001,26.610411],[142.129815,26.608703],[142.128232,26.609156],[142.12748,26.610423],[142.125545,26.607215],[142.122668,26.604292],[142.124289,26.603943]]],[[[142.204089,26.554536],[142.205608,26.554224],[142.212285,26.556239],[142.215287,26.556814],[142.215706,26.558672],[142.2179,26.561681],[142.216076,26.563887],[142.212505,26.564478],[142.211014,26.563733],[142.209538,26.563999],[142.205881,26.561697],[142.20414,26.562274],[142.204051,26.55896],[142.201566,26.556655],[142.201566,26.553498],[142.204089,26.554536]]],[[[139.78552,35.625257],[139.785288,35.625133],[139.794378,35.613942],[139.796043,35.615263],[139.797918,35.617732],[139.789878,35.627623],[139.78552,35.625257]]],[[[139.758032,35.569469],[139.75848,35.568442],[139.765611,35.564896],[139.772174,35.572787],[139.77347,35.574884],[139.766435,35.574903],[139.763615,35.574438],[139.757608,35.57446],[139.757141,35.571501],[139.758032,35.569469]]],[[[142.23189,26.566426],[142.233888,26.566633],[142.235566,26.567495],[142.240171,26.568983],[142.238195,26.570409],[142.234967,26.571038],[142.233256,26.573371],[142.231673,26.574749],[142.229482,26.575121],[142.226536,26.570963],[142.228477,26.569064],[142.225829,26.566426],[142.226829,26.563816],[142.228645,26.563808],[142.231163,26.56638],[142.23189,26.566426]]],[[[142.208304,27.49957],[142.20797,27.50049],[142.20532,27.500447],[142.204263,27.499491],[142.204487,27.497056],[142.205431,27.496381],[142.211471,27.494739],[142.211976,27.493627],[142.211125,27.491946],[142.211996,27.490061],[142.213403,27.489336],[142.215103,27.489612],[142.214065,27.494627],[142.213422,27.495967],[142.21207,27.496266],[142.212929,27.498221],[142.212733,27.500885],[142.210882,27.50209],[142.209828,27.500103],[142.208304,27.49957]]],[[[139.826818,35.639771],[139.824809,35.639674],[139.826158,35.642628],[139.822956,35.641683],[139.820437,35.639087],[139.821158,35.634061],[139.825549,35.634484],[139.825124,35.637464],[139.832768,35.638205],[139.832954,35.640359],[139.826818,35.639771]]],[[[139.753507,35.624049],[139.753213,35.618995],[139.759402,35.619038],[139.75975,35.619353],[139.759413,35.628],[139.759226,35.633654],[139.755244,35.633628],[139.754005,35.630919],[139.753507,35.624049]]],[[[142.151719,26.582954],[142.154766,26.58439],[142.156629,26.584225],[142.158165,26.583368],[142.159645,26.585646],[142.162082,26.587992],[142.158968,26.58756],[142.158208,26.588127],[142.154645,26.587759],[142.151991,26.585437],[142.149495,26.585982],[142.147917,26.583031],[142.150577,26.581768],[142.151719,26.582954]]],[[[142.165084,27.115941],[142.163848,27.115166],[142.161973,27.11512],[142.161593,27.113273],[142.165585,27.112901],[142.167328,27.115154],[142.168374,27.114581],[142.170489,27.114981],[142.171777,27.116359],[142.170364,27.119152],[142.168376,27.121599],[142.167052,27.120395],[142.165162,27.121364],[142.163832,27.12008],[142.165453,27.117944],[142.165084,27.115941]]],[[[139.289519,34.474539],[139.291805,34.471089],[139.291668,34.470127],[139.29466,34.469778],[139.298994,34.470296],[139.299324,34.471354],[139.297426,34.472999],[139.292432,34.475282],[139.290541,34.476437],[139.287471,34.477145],[139.289519,34.474539]]],[[[139.224566,34.373444],[139.227981,34.370911],[139.226427,34.367319],[139.228917,34.367495],[139.228464,34.368739],[139.229338,34.372593],[139.224822,34.375602],[139.223561,34.375431],[139.224566,34.373444]]],[[[142.174611,27.034272],[142.175313,27.031761],[142.176923,27.031933],[142.176198,27.034495],[142.175206,27.035293],[142.17531,27.036721],[142.17772,27.036808],[142.174961,27.041972],[142.173238,27.040967],[142.17416,27.037459],[142.174611,27.034272]]],[[[142.240709,27.095445],[142.243264,27.092642],[142.24467,27.092187],[142.245739,27.090312],[142.248099,27.090942],[142.248556,27.093052],[142.246264,27.09492],[142.242222,27.095756],[142.240709,27.095445]]],[[[139.849736,35.635836],[139.849914,35.638467],[139.852368,35.638618],[139.858629,35.637844],[139.852538,35.64021],[139.850826,35.640275],[139.849732,35.638996],[139.849736,35.635836]]],[[[139.782346,35.639012],[139.790144,35.643128],[139.789893,35.643516],[139.782267,35.639381],[139.782346,35.639012]]],[[[141.284342,24.79933],[141.286298,24.79805],[141.28647,24.801479],[141.287519,24.803294],[141.287625,24.807214],[141.286292,24.806532],[141.285597,24.805113],[141.284342,24.79933]]],[[[139.790989,35.643732],[139.796651,35.64669],[139.79646,35.647075],[139.790926,35.644094],[139.790989,35.643732]]],[[[142.098719,27.718035],[142.100787,27.716932],[142.101546,27.717894],[142.100124,27.719778],[142.097893,27.720374],[142.096523,27.719229],[142.098719,27.718035]]],[[[139.278742,34.324749],[139.280488,34.324811],[139.278313,34.327055],[139.275846,34.327459],[139.275211,34.326493],[139.276886,34.324371],[139.278742,34.324749]]],[[[142.194414,27.193233],[142.196606,27.19415],[142.197415,27.195489],[142.195227,27.196437],[142.193651,27.195518],[142.193456,27.193909],[142.194414,27.193233]]],[[[139.189346,34.208333],[139.191865,34.206026],[139.192838,34.207412],[139.192657,34.209285],[139.189346,34.208333]]],[[[142.207213,27.487205],[142.208832,27.487914],[142.207308,27.489378],[142.20509,27.488831],[142.205431,27.487772],[142.207213,27.487205]]],[[[142.124663,27.678651],[142.126538,27.678335],[142.12715,27.679892],[142.126817,27.681512],[142.124824,27.680653],[142.124663,27.678651]]],[[[142.18609,27.116363],[142.187408,27.11746],[142.185097,27.118758],[142.184437,27.118092],[142.18609,27.116363]]],[[[139.074609,34.185736],[139.073206,34.185473],[139.071957,34.184154],[139.073192,34.183431],[139.074609,34.185736]]],[[[142.176813,27.128824],[142.17938,27.127125],[142.179758,27.129124],[142.176813,27.128824]]],[[[142.238989,27.047152],[142.240513,27.045514],[142.24132,27.046809],[142.238989,27.047152]]],[[[139.075219,34.187268],[139.076666,34.185752],[139.07755,34.187195],[139.075219,34.187268]]],[[[142.167842,26.593195],[142.169029,26.593665],[142.169131,26.595124],[142.167958,26.595492],[142.167842,26.593195]]]]}}]}
